{"type": "FeatureCollection", "features": [ {"type": "Feature", "properties": {"norad_id": 34058, "name": "COSMOS 2251 DEB", "group": "cosmos-2251-debris", "lat": 19.57034520723282, "lon": -162.9077049023601, "alt_km": 1323.5732247670203, "timestamp": "2025-12-04T15:47:54.492736+00:00", "meta": {"OBJECT_NAME": "COSMOS 2251 DEB", "OBJECT_ID": "1993-036JV", "EPOCH": "2025-12-04T07:25:45.156288", "MEAN_MOTION": 13.5605892, "ECCENTRICITY": 0.03782949, "INCLINATION": 73.9322, "RA_OF_ASC_NODE": 191.7768, "ARG_OF_PERICENTER": 188.6195, "MEAN_ANOMALY": 291.0962, "EPHEMERIS_TYPE": 0, "CLASSIFICATION_TYPE": "U", "NORAD_CAT_ID": 34058, "ELEMENT_SET_NO": 999, "REV_AT_EPOCH": 83028, "BSTAR": 0.00086143865, "MEAN_MOTION_DOT": 9.35e-06, "MEAN_MOTION_DDOT": 0}, "tle": {"line1": "1 34058U 93036JV  25338.30955042  .00000935  00000+0  86144-3 0  9992", "line2": "2 34058  73.9322 191.7768 0378294 188.6195 291.0962 13.56058920830287"}}, "geometry": {"type": "Point", "coordinates": [-162.9077049023601, 19.57034520723282]}}, {"type": "Feature", "properties": {"norad_id": 34059, "name": "COSMOS 2251 DEB", "group": "cosmos-2251-debris", "lat": -49.90493314726081, "lon": -178.3525041201378, "alt_km": 711.0126466234015, "timestamp": "2025-12-04T15:47:54.492747+00:00", "meta": {"OBJECT_NAME": "COSMOS 2251 DEB", "OBJECT_ID": "1993-036JW", "EPOCH": "2025-12-04T01:51:40.921344", "MEAN_MOTION": 14.52867487, "ECCENTRICITY": 0.00188094, "INCLINATION": 74.0383, "RA_OF_ASC_NODE": 202.6159, "ARG_OF_PERICENTER": 280.7537, "MEAN_ANOMALY": 230.4201, "EPHEMERIS_TYPE": 0, "CLASSIFICATION_TYPE": "U", "NORAD_CAT_ID": 34059, "ELEMENT_SET_NO": 999, "REV_AT_EPOCH": 88333, "BSTAR": 0.0014619212, "MEAN_MOTION_DOT": 6.007e-05, "MEAN_MOTION_DDOT": 0}, "tle": {"line1": "1 34059U 93036JW  25338.07755696  .00006007  00000+0  14619-2 0  9993", "line2": "2 34059  74.0383 202.6159 0018809 280.7537 230.4201 14.52867487883330"}}, "geometry": {"type": "Point", "coordinates": [-178.3525041201378, -49.90493314726081]}}, {"type": "Feature", "properties": {"norad_id": 34061, "name": "COSMOS 2251 DEB", "group": "cosmos-2251-debris", "lat": -56.98289590858672, "lon": -107.80317238660076, "alt_km": 756.3291388592852, "timestamp": "2025-12-04T15:47:54.492757+00:00", "meta": {"OBJECT_NAME": "COSMOS 2251 DEB", "OBJECT_ID": "1993-036JY", "EPOCH": "2025-12-04T06:46:08.896224", "MEAN_MOTION": 14.40327442, "ECCENTRICITY": 0.00201704, "INCLINATION": 74.0391, "RA_OF_ASC_NODE": 279.022, "ARG_OF_PERICENTER": 357.388, "MEAN_ANOMALY": 152.1631, "EPHEMERIS_TYPE": 0, "CLASSIFICATION_TYPE": "U", "NORAD_CAT_ID": 34061, "ELEMENT_SET_NO": 999, "REV_AT_EPOCH": 88058, "BSTAR": 0.00072156679, "MEAN_MOTION_DOT": 2.267e-05, "MEAN_MOTION_DDOT": 0}, "tle": {"line1": "1 34061U 93036JY  25338.28204741  .00002267  00000+0  72157-3 0  9995", "line2": "2 34061  74.0391 279.0220 0020170 357.3880 152.1631 14.40327442880585"}}, "geometry": {"type": "Point", "coordinates": [-107.80317238660076, -56.98289590858672]}}, {"type": "Feature", "properties": {"norad_id": 34062, "name": "COSMOS 2251 DEB", "group": "cosmos-2251-debris", "lat": 32.17782573749531, "lon": 164.3062302290373, "alt_km": 682.8354807683008, "timestamp": "2025-12-04T15:47:54.492768+00:00", "meta": {"OBJECT_NAME": "COSMOS 2251 DEB", "OBJECT_ID": "1993-036JZ", "EPOCH": "2025-12-03T22:20:10.307040", "MEAN_MOTION": 14.78100103, "ECCENTRICITY": 0.00762, "INCLINATION": 74.0267, "RA_OF_ASC_NODE": 155.3528, "ARG_OF_PERICENTER": 236.1012, "MEAN_ANOMALY": 247.2142, "EPHEMERIS_TYPE": 0, "CLASSIFICATION_TYPE": "U", "NORAD_CAT_ID": 34062, "ELEMENT_SET_NO": 999, "REV_AT_EPOCH": 88465, "BSTAR": 0.0051158, "MEAN_MOTION_DOT": 0.00039025, "MEAN_MOTION_DDOT": 0}, "tle": {"line1": "1 34062U 93036JZ  25337.93067485  .00039025  00000+0  51158-2 0  9998", "line2": "2 34062  74.0267 155.3528 0076200 236.1012 247.2142 14.78100103884650"}}, "geometry": {"type": "Point", "coordinates": [164.3062302290373, 32.17782573749531]}}, {"type": "Feature", "properties": {"norad_id": 34064, "name": "COSMOS 2251 DEB", "group": "cosmos-2251-debris", "lat": -34.157909169427846, "lon": 117.06283908465046, "alt_km": 768.2711205520218, "timestamp": "2025-12-04T15:47:54.492778+00:00", "meta": {"OBJECT_NAME": "COSMOS 2251 DEB", "OBJECT_ID": "1993-036KB", "EPOCH": "2025-12-03T07:52:30.877824", "MEAN_MOTION": 14.42279449, "ECCENTRICITY": 0.0021788, "INCLINATION": 74.0325, "RA_OF_ASC_NODE": 288.3269, "ARG_OF_PERICENTER": 356.1066, "MEAN_ANOMALY": 156.1404, "EPHEMERIS_TYPE": 0, "CLASSIFICATION_TYPE": "U", "NORAD_CAT_ID": 34064, "ELEMENT_SET_NO": 999, "REV_AT_EPOCH": 88006, "BSTAR": 0.00084902, "MEAN_MOTION_DOT": 2.784e-05, "MEAN_MOTION_DDOT": 0}, "tle": {"line1": "1 34064U 93036KB  25337.32813516  .00002784  00000+0  84902-3 0  9993", "line2": "2 34064  74.0325 288.3269 0021788 356.1066 156.1404 14.42279449880060"}}, "geometry": {"type": "Point", "coordinates": [117.06283908465046, -34.157909169427846]}}, {"type": "Feature", "properties": {"norad_id": 34065, "name": "COSMOS 2251 DEB", "group": "cosmos-2251-debris", "lat": -7.030066738644582, "lon": -89.0168796623479, "alt_km": 757.684940184572, "timestamp": "2025-12-04T15:47:54.492788+00:00", "meta": {"OBJECT_NAME": "COSMOS 2251 DEB", "OBJECT_ID": "1993-036KC", "EPOCH": "2025-12-04T06:21:22.171680", "MEAN_MOTION": 14.38048001, "ECCENTRICITY": 0.00159694, "INCLINATION": 74.0356, "RA_OF_ASC_NODE": 273.7305, "ARG_OF_PERICENTER": 13.209, "MEAN_ANOMALY": 103.6998, "EPHEMERIS_TYPE": 0, "CLASSIFICATION_TYPE": "U", "NORAD_CAT_ID": 34065, "ELEMENT_SET_NO": 999, "REV_AT_EPOCH": 88083, "BSTAR": 0.00034131516, "MEAN_MOTION_DOT": 1.009e-05, "MEAN_MOTION_DDOT": 0}, "tle": {"line1": "1 34065U 93036KC  25338.26483995  .00001009  00000+0  34132-3 0  9991", "line2": "2 34065  74.0356 273.7305 0015969  13.2090 103.6998 14.38048001880839"}}, "geometry": {"type": "Point", "coordinates": [-89.0168796623479, -7.030066738644582]}}, {"type": "Feature", "properties": {"norad_id": 34070, "name": "COSMOS 2251 DEB", "group": "cosmos-2251-debris", "lat": -10.192603272943845, "lon": -44.90524199522976, "alt_km": 636.4777699145843, "timestamp": "2025-12-04T15:47:54.492799+00:00", "meta": {"OBJECT_NAME": "COSMOS 2251 DEB", "OBJECT_ID": "1993-036KH", "EPOCH": "2025-12-04T04:21:14.014080", "MEAN_MOTION": 14.76522442, "ECCENTRICITY": 0.00191882, "INCLINATION": 73.9996, "RA_OF_ASC_NODE": 133.0733, "ARG_OF_PERICENTER": 247.2404, "MEAN_ANOMALY": 289.7274, "EPHEMERIS_TYPE": 0, "CLASSIFICATION_TYPE": "U", "NORAD_CAT_ID": 34070, "ELEMENT_SET_NO": 999, "REV_AT_EPOCH": 88484, "BSTAR": 0.0058264901, "MEAN_MOTION_DOT": 0.00040953, "MEAN_MOTION_DDOT": 0}, "tle": {"line1": "1 34070U 93036KH  25338.18141220  .00040953  00000+0  58265-2 0  9993", "line2": "2 34070  73.9996 133.0733 0019188 247.2404 289.7274 14.76522442884847"}}, "geometry": {"type": "Point", "coordinates": [-44.90524199522976, -10.192603272943845]}}, {"type": "Feature", "properties": {"norad_id": 34114, "name": "COSMOS 2251 DEB", "group": "cosmos-2251-debris", "lat": -73.4113976596211, "lon": -14.464866177490979, "alt_km": 738.9647971453232, "timestamp": "2025-12-04T15:47:54.492809+00:00", "meta": {"OBJECT_NAME": "COSMOS 2251 DEB", "OBJECT_ID": "1993-036KK", "EPOCH": "2025-12-04T06:37:32.295072", "MEAN_MOTION": 14.56186134, "ECCENTRICITY": 0.00473367, "INCLINATION": 74.0608, "RA_OF_ASC_NODE": 59.865, "ARG_OF_PERICENTER": 57.9549, "MEAN_ANOMALY": 14.2167, "EPHEMERIS_TYPE": 0, "CLASSIFICATION_TYPE": "U", "NORAD_CAT_ID": 34114, "ELEMENT_SET_NO": 999, "REV_AT_EPOCH": 87678, "BSTAR": 0.0047658175, "MEAN_MOTION_DOT": 0.00021416, "MEAN_MOTION_DDOT": 0}, "tle": {"line1": "1 34114U 93036KK  25338.27606823  .00021416  00000+0  47658-2 0  9994", "line2": "2 34114  74.0608  59.8650 0047336  57.9549  14.2167 14.56186134876781"}}, "geometry": {"type": "Point", "coordinates": [-14.464866177490979, -73.4113976596211]}}, {"type": "Feature", "properties": {"norad_id": 34115, "name": "COSMOS 2251 DEB", "group": "cosmos-2251-debris", "lat": 69.06577297649802, "lon": -53.56362030197782, "alt_km": 604.875305462786, "timestamp": "2025-12-04T15:47:54.492820+00:00", "meta": {"OBJECT_NAME": "COSMOS 2251 DEB", "OBJECT_ID": "1993-036KL", "EPOCH": "2025-12-04T04:05:39.870240", "MEAN_MOTION": 14.79269175, "ECCENTRICITY": 0.00282589, "INCLINATION": 74.0077, "RA_OF_ASC_NODE": 258.8334, "ARG_OF_PERICENTER": 84.9445, "MEAN_ANOMALY": 275.4955, "EPHEMERIS_TYPE": 0, "CLASSIFICATION_TYPE": "U", "NORAD_CAT_ID": 34115, "ELEMENT_SET_NO": 999, "REV_AT_EPOCH": 89285, "BSTAR": 0.0024436174, "MEAN_MOTION_DOT": 0.00018309, "MEAN_MOTION_DDOT": 0}, "tle": {"line1": "1 34115U 93036KL  25338.17060035  .00018309  00000+0  24436-2 0  9999", "line2": "2 34115  74.0077 258.8334 0028258  84.9445 275.4955 14.79269175892853"}}, "geometry": {"type": "Point", "coordinates": [-53.56362030197782, 69.06577297649802]}}, {"type": "Feature", "properties": {"norad_id": 34116, "name": "COSMOS 2251 DEB", "group": "cosmos-2251-debris", "lat": 73.9690180352395, "lon": -77.14462535379128, "alt_km": 717.4150512068054, "timestamp": "2025-12-04T15:47:54.492830+00:00", "meta": {"OBJECT_NAME": "COSMOS 2251 DEB", "OBJECT_ID": "1993-036KM", "EPOCH": "2025-12-04T01:12:20.672928", "MEAN_MOTION": 14.52898279, "ECCENTRICITY": 0.00122643, "INCLINATION": 74.0407, "RA_OF_ASC_NODE": 199.1653, "ARG_OF_PERICENTER": 275.332, "MEAN_ANOMALY": 234.2622, "EPHEMERIS_TYPE": 0, "CLASSIFICATION_TYPE": "U", "NORAD_CAT_ID": 34116, "ELEMENT_SET_NO": 999, "REV_AT_EPOCH": 88360, "BSTAR": 0.0014603638, "MEAN_MOTION_DOT": 5.996e-05, "MEAN_MOTION_DDOT": 0}, "tle": {"line1": "1 34116U 93036KM  25338.05023927  .00005996  00000+0  14604-2 0  9990", "line2": "2 34116  74.0407 199.1653 0012264 275.3320 234.2622 14.52898279883601"}}, "geometry": {"type": "Point", "coordinates": [-77.14462535379128, 73.9690180352395]}}]}